{"type": "FeatureCollection", "features": [ {"type": "Feature", "properties": {"norad_id": 43010, "name": "FENGYUN 3D", "group": "weather", "lat": -57.62731028814076, "lon": -42.806253876150215, "alt_km": 833.3765165370723, "timestamp": "2025-12-02T13:52:16.919259+00:00", "meta": {"OBJECT_NAME": "FENGYUN 3D", "OBJECT_ID": "2017-072A", "EPOCH": "2025-12-02T05:41:25.465920", "MEAN_MOTION": 14.19678786, "ECCENTRICITY": 5.545e-05, "INCLINATION": 98.9879, "RA_OF_ASC_NODE": 302.3908, "ARG_OF_PERICENTER": 228.5095, "MEAN_ANOMALY": 131.6033, "EPHEMERIS_TYPE": 0, "CLASSIFICATION_TYPE": "U", "NORAD_CAT_ID": 43010, "ELEMENT_SET_NO": 999, "REV_AT_EPOCH": 41704, "BSTAR": 9.3974503e-05, "MEAN_MOTION_DOT": 1.53e-06, "MEAN_MOTION_DDOT": 0}, "tle": {"line1": "1 43010U 17072A   25336.23710030  .00000153  00000+0  93975-4 0  9995", "line2": "2 43010  98.9879 302.3908 0000554 228.5095 131.6033 14.19678786417040"}}, "geometry": {"type": "Point", "coordinates": [-42.806253876150215, -57.62731028814076]}}, {"type": "Feature", "properties": {"norad_id": 43013, "name": "NOAA 20 (JPSS-1)", "group": "weather", "lat": 77.01580158661346, "lon": 134.94456706681746, "alt_km": 818.2228742340803, "timestamp": "2025-12-02T13:52:16.919278+00:00", "meta": {"OBJECT_NAME": "NOAA 20 (JPSS-1)", "OBJECT_ID": "2017-073A", "EPOCH": "2025-12-02T06:38:14.446176", "MEAN_MOTION": 14.19521248, "ECCENTRICITY": 0.00020465, "INCLINATION": 98.7583, "RA_OF_ASC_NODE": 272.6885, "ARG_OF_PERICENTER": 102.1921, "MEAN_ANOMALY": 257.9485, "EPHEMERIS_TYPE": 0, "CLASSIFICATION_TYPE": "U", "NORAD_CAT_ID": 43013, "ELEMENT_SET_NO": 999, "REV_AT_EPOCH": 41653, "BSTAR": 8.6366977e-05, "MEAN_MOTION_DOT": 1.38e-06, "MEAN_MOTION_DDOT": 0}, "tle": {"line1": "1 43013U 17073A   25336.27655609  .00000138  00000+0  86367-4 0  9993", "line2": "2 43013  98.7583 272.6885 0002046 102.1921 257.9485 14.19521248416535"}}, "geometry": {"type": "Point", "coordinates": [134.94456706681746, 77.01580158661346]}}, {"type": "Feature", "properties": {"norad_id": 43226, "name": "GOES 17", "group": "weather", "lat": 0.40192646815133093, "lon": -169.82039457393049, "alt_km": 35783.992892451766, "timestamp": "2025-12-02T13:52:16.919291+00:00", "meta": {"OBJECT_NAME": "GOES 17", "OBJECT_ID": "2018-022A", "EPOCH": "2025-12-02T04:47:54.172320", "MEAN_MOTION": 1.0026989, "ECCENTRICITY": 0.00034673, "INCLINATION": 0.43, "RA_OF_ASC_NODE": 89.3615, "ARG_OF_PERICENTER": 180.8608, "MEAN_ANOMALY": 143.5588, "EPHEMERIS_TYPE": 0, "CLASSIFICATION_TYPE": "U", "NORAD_CAT_ID": 43226, "ELEMENT_SET_NO": 999, "REV_AT_EPOCH": 2844, "BSTAR": 0, "MEAN_MOTION_DOT": -1.61e-06, "MEAN_MOTION_DDOT": 0}, "tle": {"line1": "1 43226U 18022A   25336.19993255 -.00000161  00000+0  00000+0 0  9999", "line2": "2 43226   0.4300  89.3615 0003467 180.8608 143.5588  1.00269890 28446"}}, "geometry": {"type": "Point", "coordinates": [-169.82039457393049, 0.40192646815133093]}}, {"type": "Feature", "properties": {"norad_id": 43491, "name": "FENGYUN 2H", "group": "weather", "lat": -2.4831544126182106, "lon": -0.8775001030158753, "alt_km": 35791.79000429413, "timestamp": "2025-12-02T13:52:16.919303+00:00", "meta": {"OBJECT_NAME": "FENGYUN 2H", "OBJECT_ID": "2018-050A", "EPOCH": "2025-12-02T02:10:37.269696", "MEAN_MOTION": 1.00271571, "ECCENTRICITY": 0.00028442, "INCLINATION": 2.521, "RA_OF_ASC_NODE": 81.4468, "ARG_OF_PERICENTER": 161.4684, "MEAN_ANOMALY": 300.2994, "EPHEMERIS_TYPE": 0, "CLASSIFICATION_TYPE": "U", "NORAD_CAT_ID": 43491, "ELEMENT_SET_NO": 999, "REV_AT_EPOCH": 2746, "BSTAR": 0, "MEAN_MOTION_DOT": -1.09e-06, "MEAN_MOTION_DDOT": 0}, "tle": {"line1": "1 43491U 18050A   25336.09070914 -.00000109  00000+0  00000+0 0  9993", "line2": "2 43491   2.5210  81.4468 0002844 161.4684 300.2994  1.00271571 27462"}}, "geometry": {"type": "Point", "coordinates": [-0.8775001030158753, -2.4831544126182106]}}, {"type": "Feature", "properties": {"norad_id": 43689, "name": "METOP-C", "group": "weather", "lat": 11.38323033323939, "lon": -143.7320011897866, "alt_km": 822.0178073705292, "timestamp": "2025-12-02T13:52:16.919313+00:00", "meta": {"OBJECT_NAME": "METOP-C", "OBJECT_ID": "2018-087A", "EPOCH": "2025-12-02T04:38:07.759968", "MEAN_MOTION": 14.21505295, "ECCENTRICITY": 0.00017489, "INCLINATION": 98.6945, "RA_OF_ASC_NODE": 34.1236, "ARG_OF_PERICENTER": 59.4741, "MEAN_ANOMALY": 300.6608, "EPHEMERIS_TYPE": 0, "CLASSIFICATION_TYPE": "U", "NORAD_CAT_ID": 43689, "ELEMENT_SET_NO": 999, "REV_AT_EPOCH": 36684, "BSTAR": 9.8625114e-05, "MEAN_MOTION_DOT": 1.72e-06, "MEAN_MOTION_DDOT": 0}, "tle": {"line1": "1 43689U 18087A   25336.19314537  .00000172  00000+0  98625-4 0  9999", "line2": "2 43689  98.6945  34.1236 0001748  59.4741 300.6608 14.21505295366846"}}, "geometry": {"type": "Point", "coordinates": [-143.7320011897866, 11.38323033323939]}}, {"type": "Feature", "properties": {"norad_id": 43823, "name": "GEO-KOMPSAT-2A", "group": "weather", "lat": -0.0318008019980996, "lon": 47.98523623104933, "alt_km": 35788.45930707916, "timestamp": "2025-12-02T13:52:16.919325+00:00", "meta": {"OBJECT_NAME": "GEO-KOMPSAT-2A", "OBJECT_ID": "2018-100A", "EPOCH": "2025-12-02T05:57:38.749824", "MEAN_MOTION": 1.00270582, "ECCENTRICITY": 5.696e-05, "INCLINATION": 0.0606, "RA_OF_ASC_NODE": 123.2735, "ARG_OF_PERICENTER": 70.3508, "MEAN_ANOMALY": 95.4102, "EPHEMERIS_TYPE": 0, "CLASSIFICATION_TYPE": "U", "NORAD_CAT_ID": 43823, "ELEMENT_SET_NO": 999, "REV_AT_EPOCH": 2565, "BSTAR": 0, "MEAN_MOTION_DOT": -3.23e-06, "MEAN_MOTION_DDOT": 0}, "tle": {"line1": "1 43823U 18100A   25336.24836516 -.00000323  00000+0  00000+0 0  9991", "line2": "2 43823   0.0606 123.2735 0000569  70.3508  95.4102  1.00270582 25654"}}, "geometry": {"type": "Point", "coordinates": [47.98523623104933, -0.0318008019980996]}}, {"type": "Feature", "properties": {"norad_id": 44387, "name": "METEOR-M2 2", "group": "weather", "lat": 38.86290382623311, "lon": 143.43395539549383, "alt_km": 807.3987319179541, "timestamp": "2025-12-02T13:52:16.919336+00:00", "meta": {"OBJECT_NAME": "METEOR-M2 2", "OBJECT_ID": "2019-038A", "EPOCH": "2025-12-02T06:28:11.762976", "MEAN_MOTION": 14.24284264, "ECCENTRICITY": 8.241e-05, "INCLINATION": 98.8962, "RA_OF_ASC_NODE": 315.8709, "ARG_OF_PERICENTER": 170.593, "MEAN_ANOMALY": 189.5264, "EPHEMERIS_TYPE": 0, "CLASSIFICATION_TYPE": "U", "NORAD_CAT_ID": 44387, "ELEMENT_SET_NO": 999, "REV_AT_EPOCH": 33326, "BSTAR": 0.00012418604, "MEAN_MOTION_DOT": 2.41e-06, "MEAN_MOTION_DDOT": 0}, "tle": {"line1": "1 44387U 19038A   25336.26958059  .00000241  00000+0  12419-3 0  9996", "line2": "2 44387  98.8962 315.8709 0000824 170.5930 189.5264 14.24284264333261"}}, "geometry": {"type": "Point", "coordinates": [143.43395539549383, 38.86290382623311]}}, {"type": "Feature", "properties": {"norad_id": 47719, "name": "ARKTIKA-M 1", "group": "weather", "lat": -37.85368632838978, "lon": -71.48561557414936, "alt_km": 2173.0343548845076, "timestamp": "2025-12-02T13:52:16.919349+00:00", "meta": {"OBJECT_NAME": "ARKTIKA-M 1", "OBJECT_ID": "2021-016A", "EPOCH": "2025-12-01T02:41:41.634816", "MEAN_MOTION": 2.00613156, "ECCENTRICITY": 0.71974708, "INCLINATION": 63.1756, "RA_OF_ASC_NODE": 85.6045, "ARG_OF_PERICENTER": 269.084, "MEAN_ANOMALY": 15.7076, "EPHEMERIS_TYPE": 0, "CLASSIFICATION_TYPE": "U", "NORAD_CAT_ID": 47719, "ELEMENT_SET_NO": 999, "REV_AT_EPOCH": 3481, "BSTAR": 0, "MEAN_MOTION_DOT": -1.2e-07, "MEAN_MOTION_DDOT": 0}, "tle": {"line1": "1 47719U 21016A   25335.11228744 -.00000012  00000+0  00000+0 0  9997", "line2": "2 47719  63.1756  85.6045 7197470 269.0840  15.7076  2.00613156 34816"}}, "geometry": {"type": "Point", "coordinates": [-71.48561557414936, -37.85368632838978]}}, {"type": "Feature", "properties": {"norad_id": 49008, "name": "FENGYUN 3E", "group": "weather", "lat": -77.47740531526001, "lon": 113.33471964874155, "alt_km": 832.8691703563272, "timestamp": "2025-12-02T13:52:16.919363+00:00", "meta": {"OBJECT_NAME": "FENGYUN 3E", "OBJECT_ID": "2021-062A", "EPOCH": "2025-12-02T05:52:50.909952", "MEAN_MOTION": 14.19877727, "ECCENTRICITY": 8.03e-05, "INCLINATION": 98.7475, "RA_OF_ASC_NODE": 336.8906, "ARG_OF_PERICENTER": 330.8589, "MEAN_ANOMALY": 29.2542, "EPHEMERIS_TYPE": 0, "CLASSIFICATION_TYPE": "U", "NORAD_CAT_ID": 49008, "ELEMENT_SET_NO": 999, "REV_AT_EPOCH": 22863, "BSTAR": 4.6244483e-05, "MEAN_MOTION_DOT": 5.4e-07, "MEAN_MOTION_DDOT": 0}, "tle": {"line1": "1 49008U 21062A   25336.24503368  .00000054  00000+0  46244-4 0  9994", "line2": "2 49008  98.7475 336.8906 0000803 330.8589  29.2542 14.19877727228633"}}, "geometry": {"type": "Point", "coordinates": [113.33471964874155, -77.47740531526001]}}, {"type": "Feature", "properties": {"norad_id": 51850, "name": "GOES 18", "group": "weather", "lat": 7.341919242062511e-05, "lon": 142.7193946241228, "alt_km": 35788.824094583826, "timestamp": "2025-12-02T13:52:16.919375+00:00", "meta": {"OBJECT_NAME": "GOES 18", "OBJECT_ID": "2022-021A", "EPOCH": "2025-12-02T04:34:17.974848", "MEAN_MOTION": 1.00270135, "ECCENTRICITY": 6.713e-05, "INCLINATION": 0.0134, "RA_OF_ASC_NODE": 78.1452, "ARG_OF_PERICENTER": 209.7823, "MEAN_ANOMALY": 74.949, "EPHEMERIS_TYPE": 0, "CLASSIFICATION_TYPE": "U", "NORAD_CAT_ID": 51850, "ELEMENT_SET_NO": 999, "REV_AT_EPOCH": 461, "BSTAR": 0, "MEAN_MOTION_DOT": 1.18e-06, "MEAN_MOTION_DDOT": 0}, "tle": {"line1": "1 51850U 22021A   25336.19048582  .00000118  00000+0  00000+0 0  9990", "line2": "2 51850   0.0134  78.1452 0000671 209.7823  74.9490  1.00270135  4614"}}, "geometry": {"type": "Point", "coordinates": [142.7193946241228, 7.341919242062511e-05]}}]}